[
  {
    "OBJECT_NAME": "STARLINK-5952",
    "OBJECT_ID": "23083AZ",
    "EPOCH": "2025-11-11T02:35:10.020768",
    "MEAN_MOTION": 15.02545695,
    "ECCENTRICITY": 0.000105,
    "INCLINATION": 43.0069,
    "RA_OF_ASC_NODE": 353.0236,
    "ARG_OF_PERICENTER": 268.7149,
    "MEAN_ANOMALY": 91.3574,
    "EPHEMERIS_TYPE": 0,
    "CLASSIFICATION_TYPE": "U",
    "NORAD_CAT_ID": 56923,
    "ELEMENT_SET_NO": 999,
    "REV_AT_EPOCH": 13398,
    "BSTAR": 3.3242e-05,
    "MEAN_MOTION_DOT": 2.46e-06,
    "MEAN_MOTION_DDOT": 0.0,
    "TLE_LINE1": "1 56923U 23083AZ  25315.10775487  .00000246  00000+0  33242-4 0  9995",
    "TLE_LINE2": "2 56923  43.0069 353.0236 0001050 268.7149  91.3574 15.02545695133989",
    "COMMENT": "Grouped by shell and plane from TLE"
  },
  {
    "OBJECT_NAME": "STARLINK-5731",
    "OBJECT_ID": "23083BA",
    "EPOCH": "2025-11-11T03:48:30.985344",
    "MEAN_MOTION": 15.0253806,
    "ECCENTRICITY": 0.0001165,
    "INCLINATION": 43.0071,
    "RA_OF_ASC_NODE": 352.5472,
    "ARG_OF_PERICENTER": 266.9767,
    "MEAN_ANOMALY": 93.0942,
    "EPHEMERIS_TYPE": 0,
    "CLASSIFICATION_TYPE": "U",
    "NORAD_CAT_ID": 56924,
    "ELEMENT_SET_NO": 999,
    "REV_AT_EPOCH": 13410,
    "BSTAR": 0.00014038,
    "MEAN_MOTION_DOT": 1.693e-05,
    "MEAN_MOTION_DDOT": 0.0,
    "TLE_LINE1": "1 56924U 23083BA  25315.15869196  .00001693  00000+0  14038-3 0  9990",
    "TLE_LINE2": "2 56924  43.0071 352.5472 0001165 266.9767  93.0942 15.02538060134103",
    "COMMENT": "Grouped by shell and plane from TLE"
  },
  {
    "OBJECT_NAME": "STARLINK-5733",
    "OBJECT_ID": "23083BB",
    "EPOCH": "2025-11-11T03:51:42.829632",
    "MEAN_MOTION": 15.02537702,
    "ECCENTRICITY": 4.73e-05,
    "INCLINATION": 43.0058,
    "RA_OF_ASC_NODE": 352.5621,
    "ARG_OF_PERICENTER": 223.2857,
    "MEAN_ANOMALY": 136.7948,
    "EPHEMERIS_TYPE": 0,
    "CLASSIFICATION_TYPE": "U",
    "NORAD_CAT_ID": 56925,
    "ELEMENT_SET_NO": 999,
    "REV_AT_EPOCH": 13399,
    "BSTAR": 0.00019981,
    "MEAN_MOTION_DOT": 2.497e-05,
    "MEAN_MOTION_DDOT": 0.0,
    "TLE_LINE1": "1 56925U 23083BB  25315.16091238  .00002497  00000+0  19981-3 0  9991",
    "TLE_LINE2": "2 56925  43.0058 352.5621 0000473 223.2857 136.7948 15.02537702133991",
    "COMMENT": "Grouped by shell and plane from TLE"
  },
  {
    "OBJECT_NAME": "STARLINK-5746",
    "OBJECT_ID": "23083BC",
    "EPOCH": "2025-11-11T07:07:57.818208",
    "MEAN_MOTION": 15.02551939,
    "ECCENTRICITY": 9.95e-05,
    "INCLINATION": 43.0057,
    "RA_OF_ASC_NODE": 351.8677,
    "ARG_OF_PERICENTER": 266.4445,
    "MEAN_ANOMALY": 93.6284,
    "EPHEMERIS_TYPE": 0,
    "CLASSIFICATION_TYPE": "U",
    "NORAD_CAT_ID": 56926,
    "ELEMENT_SET_NO": 999,
    "REV_AT_EPOCH": 13401,
    "BSTAR": 0.00034488000000000005,
    "MEAN_MOTION_DOT": 4.46e-05,
    "MEAN_MOTION_DDOT": 0.0,
    "TLE_LINE1": "1 56926U 23083BC  25315.29719697  .00004460  00000+0  34488-3 0  9993",
    "TLE_LINE2": "2 56926  43.0057 351.8677 0000995 266.4445  93.6284 15.02551939134011",
    "COMMENT": "Grouped by shell and plane from TLE"
  },
  {
    "OBJECT_NAME": "STARLINK-30252",
    "OBJECT_ID": "23119F",
    "EPOCH": "2025-11-11T03:59:49.243488",
    "MEAN_MOTION": 15.025461,
    "ECCENTRICITY": 0.0001451,
    "INCLINATION": 43.0054,
    "RA_OF_ASC_NODE": 353.1757,
    "ARG_OF_PERICENTER": 270.4419,
    "MEAN_ANOMALY": 89.6257,
    "EPHEMERIS_TYPE": 0,
    "CLASSIFICATION_TYPE": "U",
    "NORAD_CAT_ID": 57607,
    "ELEMENT_SET_NO": 999,
    "REV_AT_EPOCH": 12540,
    "BSTAR": 0.00034053,
    "MEAN_MOTION_DOT": 4.4e-05,
    "MEAN_MOTION_DDOT": 0.0,
    "TLE_LINE1": "1 57607U 23119F   25315.16654217  .00004400  00000+0  34053-3 0  9994",
    "TLE_LINE2": "2 57607  43.0054 353.1757 0001451 270.4419  89.6257 15.02546100125405",
    "COMMENT": "Grouped by shell and plane from TLE"
  },
  {
    "OBJECT_NAME": "STARLINK-30537",
    "OBJECT_ID": "23153A",
    "EPOCH": "2025-11-11T04:04:36.099264",
    "MEAN_MOTION": 15.02528815,
    "ECCENTRICITY": 0.0001323,
    "INCLINATION": 43.0057,
    "RA_OF_ASC_NODE": 353.1227,
    "ARG_OF_PERICENTER": 276.1589,
    "MEAN_ANOMALY": 83.9103,
    "EPHEMERIS_TYPE": 0,
    "CLASSIFICATION_TYPE": "U",
    "NORAD_CAT_ID": 57991,
    "ELEMENT_SET_NO": 999,
    "REV_AT_EPOCH": 11694,
    "BSTAR": 0.0,
    "MEAN_MOTION_DOT": -1.265e-05,
    "MEAN_MOTION_DDOT": 0.0,
    "TLE_LINE1": "1 57991U 23153A   25315.16986226 -.00001265  00000+0 -78619-4 0  9991",
    "TLE_LINE2": "2 57991  43.0057 353.1227 0001323 276.1589  83.9103 15.02528815116944",
    "COMMENT": "Grouped by shell and plane from TLE"
  },
  {
    "OBJECT_NAME": "STARLINK-30534",
    "OBJECT_ID": "23153B",
    "EPOCH": "2025-11-11T04:18:58.515552",
    "MEAN_MOTION": 15.02533539,
    "ECCENTRICITY": 0.0001222,
    "INCLINATION": 43.0062,
    "RA_OF_ASC_NODE": 353.193,
    "ARG_OF_PERICENTER": 264.0944,
    "MEAN_ANOMALY": 95.976,
    "EPHEMERIS_TYPE": 0,
    "CLASSIFICATION_TYPE": "U",
    "NORAD_CAT_ID": 57992,
    "ELEMENT_SET_NO": 999,
    "REV_AT_EPOCH": 11694,
    "BSTAR": 0.00015173,
    "MEAN_MOTION_DOT": 1.846e-05,
    "MEAN_MOTION_DDOT": 0.0,
    "TLE_LINE1": "1 57992U 23153B   25315.17984393  .00001846  00000+0  15173-3 0  9994",
    "TLE_LINE2": "2 57992  43.0062 353.1930 0001222 264.0944  95.9760 15.02533539116942",
    "COMMENT": "Grouped by shell and plane from TLE"
  },
  {
    "OBJECT_NAME": "STARLINK-30536",
    "OBJECT_ID": "23153C",
    "EPOCH": "2025-11-11T02:19:16.996800",
    "MEAN_MOTION": 15.02536222,
    "ECCENTRICITY": 0.000128,
    "INCLINATION": 43.0064,
    "RA_OF_ASC_NODE": 353.4336,
    "ARG_OF_PERICENTER": 260.1224,
    "MEAN_ANOMALY": 99.9474,
    "EPHEMERIS_TYPE": 0,
    "CLASSIFICATION_TYPE": "U",
    "NORAD_CAT_ID": 57993,
    "ELEMENT_SET_NO": 999,
    "REV_AT_EPOCH": 11703,
    "BSTAR": 7.1322e-05,
    "MEAN_MOTION_DOT": 7.6e-06,
    "MEAN_MOTION_DDOT": 0.0,
    "TLE_LINE1": "1 57993U 23153C   25315.09672450  .00000760  00000+0  71322-4 0  9997",
    "TLE_LINE2": "2 57993  43.0064 353.4336 0001280 260.1224  99.9474 15.02536222117039",
    "COMMENT": "Grouped by shell and plane from TLE"
  },
  {
    "OBJECT_NAME": "STARLINK-30538",
    "OBJECT_ID": "23153D",
    "EPOCH": "2025-11-11T03:45:24.974784",
    "MEAN_MOTION": 15.02536283,
    "ECCENTRICITY": 8.32e-05,
    "INCLINATION": 43.002,
    "RA_OF_ASC_NODE": 353.0191,
    "ARG_OF_PERICENTER": 280.4425,
    "MEAN_ANOMALY": 79.6324,
    "EPHEMERIS_TYPE": 0,
    "CLASSIFICATION_TYPE": "U",
    "NORAD_CAT_ID": 57994,
    "ELEMENT_SET_NO": 999,
    "REV_AT_EPOCH": 11694,
    "BSTAR": 1.3039000000000001e-06,
    "MEAN_MOTION_DOT": -1.86e-06,
    "MEAN_MOTION_DDOT": 0.0,
    "TLE_LINE1": "1 57994U 23153D   25315.15653906 -.00000186  00000+0  13039-5 0  9995",
    "TLE_LINE2": "2 57994  43.0020 353.0191 0000832 280.4425  79.6324 15.02536283116942",
    "COMMENT": "Grouped by shell and plane from TLE"
  },
  {
    "OBJECT_NAME": "STARLINK-30517",
    "OBJECT_ID": "23153E",
    "EPOCH": "2025-11-11T03:40:37.164288",
    "MEAN_MOTION": 15.02587672,
    "ECCENTRICITY": 0.0001925,
    "INCLINATION": 43.0074,
    "RA_OF_ASC_NODE": 352.9896,
    "ARG_OF_PERICENTER": 253.6396,
    "MEAN_ANOMALY": 106.4235,
    "EPHEMERIS_TYPE": 0,
    "CLASSIFICATION_TYPE": "U",
    "NORAD_CAT_ID": 57995,
    "ELEMENT_SET_NO": 999,
    "REV_AT_EPOCH": 11704,
    "BSTAR": 0.0,
    "MEAN_MOTION_DOT": -0.0001228,
    "MEAN_MOTION_DDOT": 0.0,
    "TLE_LINE1": "1 57995U 23153E   25315.15320792 -.00012280  00000+0 -89428-3 0  9992",
    "TLE_LINE2": "2 57995  43.0074 352.9896 0001925 253.6396 106.4235 15.02587672117045",
    "COMMENT": "Grouped by shell and plane from TLE"
  },
  {
    "OBJECT_NAME": "STARLINK-30523",
    "OBJECT_ID": "23153G",
    "EPOCH": "2025-11-11T03:50:11.714784",
    "MEAN_MOTION": 15.02550273,
    "ECCENTRICITY": 0.0001701,
    "INCLINATION": 43.0078,
    "RA_OF_ASC_NODE": 353.045,
    "ARG_OF_PERICENTER": 264.0853,
    "MEAN_ANOMALY": 95.9795,
    "EPHEMERIS_TYPE": 0,
    "CLASSIFICATION_TYPE": "U",
    "NORAD_CAT_ID": 57997,
    "ELEMENT_SET_NO": 999,
    "REV_AT_EPOCH": 11704,
    "BSTAR": 0.00019386999999999999,
    "MEAN_MOTION_DOT": 2.417e-05,
    "MEAN_MOTION_DDOT": 0.0,
    "TLE_LINE1": "1 57997U 23153G   25315.15985781  .00002417  00000+0  19387-3 0  9995",
    "TLE_LINE2": "2 57997  43.0078 353.0450 0001701 264.0853  95.9795 15.02550273117045",
    "COMMENT": "Grouped by shell and plane from TLE"
  },
  {
    "OBJECT_NAME": "STARLINK-30531",
    "OBJECT_ID": "23153H",
    "EPOCH": "2025-11-11T04:33:11.778624",
    "MEAN_MOTION": 15.02545843,
    "ECCENTRICITY": 0.0001588,
    "INCLINATION": 43.0043,
    "RA_OF_ASC_NODE": 352.4139,
    "ARG_OF_PERICENTER": 276.6806,
    "MEAN_ANOMALY": 83.3855,
    "EPHEMERIS_TYPE": 0,
    "CLASSIFICATION_TYPE": "U",
    "NORAD_CAT_ID": 57998,
    "ELEMENT_SET_NO": 999,
    "REV_AT_EPOCH": 11705,
    "BSTAR": 0.00038229999999999997,
    "MEAN_MOTION_DOT": 4.966e-05,
    "MEAN_MOTION_DDOT": 0.0,
    "TLE_LINE1": "1 57998U 23153H   25315.18971966  .00004966  00000+0  38230-3 0  9998",
    "TLE_LINE2": "2 57998  43.0043 352.4139 0001588 276.6806  83.3855 15.02545843117051",
    "COMMENT": "Grouped by shell and plane from TLE"
  },
  {
    "OBJECT_NAME": "STARLINK-30552",
    "OBJECT_ID": "23153J",
    "EPOCH": "2025-11-11T03:30:59.109408",
    "MEAN_MOTION": 15.02560873,
    "ECCENTRICITY": 8.22e-05,
    "INCLINATION": 43.0016,
    "RA_OF_ASC_NODE": 352.9445,
    "ARG_OF_PERICENTER": 270.38,
    "MEAN_ANOMALY": 89.6948,
    "EPHEMERIS_TYPE": 0,
    "CLASSIFICATION_TYPE": "U",
    "NORAD_CAT_ID": 57999,
    "ELEMENT_SET_NO": 999,
    "REV_AT_EPOCH": 11704,
    "BSTAR": 0.00033811000000000003,
    "MEAN_MOTION_DOT": 4.37e-05,
    "MEAN_MOTION_DDOT": 0.0,
    "TLE_LINE1": "1 57999U 23153J   25315.14651747  .00004370  00000+0  33811-3 0  9996",
    "TLE_LINE2": "2 57999  43.0016 352.9445 0000822 270.3800  89.6948 15.02560873117043",
    "COMMENT": "Grouped by shell and plane from TLE"
  }
]